NORAD_CAT_ID,OBJECT_NAME,OBJECT_TYPE,EPOCH,MEAN_MOTION,ECCENTRICITY,INCLINATION,RA_OF_ASC_NODE,ARG_OF_PERICENTER,MEAN_ANOMALY,BSTAR,MEAN_MOTION_DOT,MEAN_MOTION_DDOT,TLE_LINE0,TLE_LINE1,TLE_LINE2,SEMIMAJOR_AXIS,PERIOD,APOGEE,PERIGEE,DECAYED
55289.0,STARLINK-5320,PAYLOAD,2024-01-29 10:58:25,14.98345519,0.0003005,70.0006,166.5727,270.9851,89.0964,-0.00024192,-2.979e-05,0.0,0 STARLINK-5320,1 55289U 23010W   24029.45724365 -.00002979  00000-0 -24192-3 0  9998,2 55289  70.0006 166.5727 0003005 270.9851  89.0964 14.98345519 57588,6950.145,96.106,574.098,569.921,0.0
55289.0,STARLINK-5320,PAYLOAD,2024-01-29 12:34:33,14.98342279,0.0003157,70.0007,166.4044,271.5255,88.5543,-0.00019293,-2.395e-05,0.0,0 STARLINK-5320,1 55289U 23010W   24029.52400358 -.00002395  00000-0 -19293-3 0  9997,2 55289  70.0007 166.4044 0003157 271.5255  88.5543 14.98342279 57906,6950.155,96.106,574.214,569.826,0.0
55289.0,STARLINK-5320,PAYLOAD,2024-01-30 11:00:27,14.98327562,0.0003249,70.0002,164.0487,271.7327,88.346,2.4618e-05,2.01e-06,0.0,0 STARLINK-5320,1 55289U 23010W   24030.45864827  .00000201  00000-0  24618-4 0  9996,2 55289  70.0002 164.0487 0003249 271.7327  88.3460 14.98327562 57735,6950.2,96.107,574.324,569.807,0.0
55289.0,STARLINK-5320,PAYLOAD,2024-01-30 12:36:35,14.98327677,0.0003245,70.0002,163.8804,271.6852,88.3935,2.5866e-05,2.16e-06,0.0,0 STARLINK-5320,1 55289U 23010W   24030.52540824  .00000216  00000-0  25866-4 0  9994,2 55289  70.0002 163.8804 0003245 271.6852  88.3935 14.98327677 58053,6950.2,96.107,574.32,569.81,0.0
55289.0,STARLINK-5320,PAYLOAD,2024-01-30 19:01:07,14.98329915,0.000321,70.0004,163.2076,270.523,89.5561,4.7907e-05,4.79e-06,0.0,0 STARLINK-5320,1 55289U 23010W   24030.79244634  .00000479  00000-0  47907-4 0  9994,2 55289  70.0004 163.2076 0003210 270.5230  89.5561 14.98329915 58099,6950.193,96.107,574.289,569.827,0.0
55289.0,STARLINK-5320,PAYLOAD,2024-01-31 12:38:36,14.98325925,0.0002759,70.0013,161.3563,263.1115,96.9731,-3.4529e-05,-5.05e-06,0.0,0 STARLINK-5320,1 55289U 23010W   24031.52681222 -.00000505  00000-0 -34529-4 0  9992,2 55289  70.0013 161.3563 0002759 263.1115  96.9731 14.98325925 57891,6950.205,96.107,573.988,570.153,0.0
55289.0,STARLINK-5320,PAYLOAD,2024-01-31 19:03:08,14.9832745,0.0002703,70.0014,160.6831,261.7688,98.3164,-1.6718e-05,-2.92e-06,0.0,0 STARLINK-5320,1 55289U 23010W   24031.79385121 -.00000292  00000-0 -16718-4 0  9993,2 55289  70.0014 160.6831 0002703 261.7688  98.3164 14.98327450 58241,6950.201,96.107,573.944,570.187,0.0
55289.0,STARLINK-5320,PAYLOAD,2024-02-01 11:04:28,14.98331459,0.0002751,70.0015,159.0007,261.1019,98.9829,4.7924e-05,4.79e-06,0.0,0 STARLINK-5320,1 55289U 23010W   24032.46144642  .00000479  00000-0  47924-4 0  9997,2 55289  70.0015 159.0007 0002751 261.1019  98.9829 14.98331459 58039,6950.188,96.107,573.965,570.141,0.0
55289.0,STARLINK-5320,PAYLOAD,2024-02-01 19:05:09,14.98333313,0.0002717,70.0016,158.1592,260.3356,99.7496,6.6428e-05,7e-06,0.0,0 STARLINK-5320,1 55289U 23010W   24032.79524422  .00000700  00000-0  66428-4 0  9998,2 55289  70.0016 158.1592 0002717 260.3356  99.7496 14.98333313 58395,6950.183,96.107,573.936,570.159,0.0
55289.0,STARLINK-5320,PAYLOAD,2024-02-02 11:06:30,14.983288,0.0003036,69.9994,156.4709,261.1566,98.9249,1.9478e-05,1.39e-06,0.0,0 STARLINK-5320,1 55289U 23010W   24033.46284739  .00000139  00000-0  19478-4 0  9996,2 55289  69.9994 156.4709 0003036 261.1566  98.9249 14.98328800 58184,6950.197,96.107,574.172,569.952,0.0
55289.0,STARLINK-5320,PAYLOAD,2024-02-02 14:18:46,14.98327965,0.0003223,70.0005,156.1377,271.1037,88.9752,-1.0051e-05,-2.13e-06,0.0,0 STARLINK-5320,1 55289U 23010W   24033.59636938 -.00000213  00000-0 -10051-4 0  9995,2 55289  70.0005 156.1377 0003223 271.1037  88.9752 14.98327965 58516,6950.199,96.107,574.304,569.824,0.0
55289.0,STARLINK-5320,PAYLOAD,2024-02-02 17:31:02,14.98327577,0.0002732,70.0014,155.8022,259.5453,100.5398,1.0285e-05,3e-07,0.0,0 STARLINK-5320,1 55289U 23010W   24033.72988901  .00000030  00000-0  10285-4 0  9994,2 55289  70.0014 155.8022 0002732 259.5453 100.5398 14.98327577 58533,6950.2,96.107,573.964,570.167,0.0
55289.0,STARLINK-5320,PAYLOAD,2024-02-03 12:44:39,14.98328001,0.0003067,70.0007,153.7814,266.3219,93.759,-5.7874e-05,-7.83e-06,0.0,0 STARLINK-5320,1 55289U 23010W   24034.53101032 -.00000783  00000-0 -57874-4 0  9998,2 55289  70.0007 153.7814 0003067 266.3219  93.7590 14.98328001 58652,6950.199,96.107,574.196,569.932,0.0
55289.0,STARLINK-5320,PAYLOAD,2024-02-03 17:33:03,14.98328997,0.0002708,70.0014,153.2777,257.8783,102.2072,-3.1586e-05,-4.7e-06,0.0,0 STARLINK-5320,1 55289U 23010W   24034.73128910 -.00000470  00000-0 -31586-4 0  9999,2 55289  70.0014 153.2777 0002708 257.8783 102.2072 14.98328997 58379,6950.196,96.107,573.943,570.179,0.0
55289.0,STARLINK-5320,PAYLOAD,2024-02-04 14:22:47,14.98335412,0.0003259,70.0007,151.088,271.4598,88.6188,5.0244e-05,5.07e-06,0.0,0 STARLINK-5320,1 55289U 23010W   24035.59916099  .00000507  00000-0  50244-4 0  9998,2 55289  70.0007 151.0880 0003259 271.4598  88.6188 14.98335412 58814,6950.176,96.107,574.306,569.776,0.0
55289.0,STARLINK-5320,PAYLOAD,2024-02-04 17:35:03,14.98338686,0.0003249,70.0008,150.7515,271.5789,88.4998,8.4577e-05,9.17e-06,0.0,0 STARLINK-5320,1 55289U 23010W   24035.73267736  .00000917  00000-0  84577-4 0  9992,2 55289  70.0008 150.7515 0003249 271.5789  88.4998 14.98338686 58529,6950.166,96.106,574.289,569.773,0.0
55289.0,STARLINK-5320,PAYLOAD,2024-02-05 11:12:33,14.98324861,0.0002929,70.0014,148.9008,269.0821,91.0002,-3.3138e-05,-4.88e-06,0.0,0 STARLINK-5320,1 55289U 23010W   24036.46704970 -.00000488  00000-0 -33138-4 0  9991,2 55289  70.0014 148.9008 0002929 269.0821  91.0002 14.98324861 58633,6950.209,96.107,574.109,570.038,0.0
55289.0,STARLINK-5320,PAYLOAD,2024-02-05 14:24:48,14.98329578,0.0003198,70.0007,148.564,271.9083,88.171,-6.5615e-06,-1.71e-06,0.0,0 STARLINK-5320,1 55289U 23010W   24036.60056589 -.00000171  00000-0 -65615-5 0  9998,2 55289  70.0007 148.5640 0003198 271.9083  88.1710 14.98329578 58963,6950.194,96.107,574.282,569.837,0.0
55289.0,STARLINK-5320,PAYLOAD,2024-02-05 17:37:04,14.98331339,0.0003184,70.0008,148.2274,271.4748,88.6046,1.1981e-05,5e-07,0.0,0 STARLINK-5320,1 55289U 23010W   24036.73408414  .00000050  00000-0  11981-4 0  9990,2 55289  70.0008 148.2274 0003184 271.4748  88.6046 14.98331339 58675,6950.189,96.107,574.267,569.841,0.0
55289.0,STARLINK-5320,PAYLOAD,2024-02-06 14:26:49,14.98335677,0.0002863,70.0016,146.0411,264.2674,95.8158,-1.1184e-05,-2.26e-06,0.0,0 STARLINK-5320,1 55289U 23010W   24037.60196065 -.00000226  00000-0 -11184-4 0  9995,2 55289  70.0016 146.0411 0002863 264.2674  95.8158 14.98335677 59117,6950.175,96.107,574.03,570.051,0.0
55289.0,STARLINK-5320,PAYLOAD,2024-02-06 17:39:05,14.98337768,0.0002861,70.0016,145.7047,264.3253,95.758,1.2281e-05,5.4e-07,0.0,0 STARLINK-5320,1 55289U 23010W   24037.73547819  .00000054  00000-0  12281-4 0  9992,2 55289  70.0016 145.7047 0002861 264.3253  95.7580 14.98337768 58828,6950.169,96.107,574.022,570.045,0.0
55289.0,STARLINK-5320,PAYLOAD,2024-02-07 12:52:42,14.9832568,0.0002681,70.0019,143.6848,262.463,97.6224,2.3011e-05,1.82e-06,0.0,0 STARLINK-5320,1 55289U 23010W   24038.53660497  .00000182  00000-0  23011-4 0  9994,2 55289  70.0019 143.6848 0002681 262.4630  97.6224 14.98325680 58944,6950.206,96.107,573.935,570.208,0.0
55289.0,STARLINK-5320,PAYLOAD,2024-02-07 14:28:50,14.98325927,0.0002912,70.0011,143.5155,264.3954,95.6873,2.2079e-05,1.7e-06,0.0,0 STARLINK-5320,1 55289U 23010W   24038.60336457  .00000170  00000-0  22079-4 0  9998,2 55289  70.0011 143.5155 0002912 264.3954  95.6873 14.98325927 59261,6950.205,96.107,574.094,570.047,0.0
55289.0,STARLINK-5320,PAYLOAD,2024-02-07 16:04:58,14.98328865,0.000302,70.0008,143.347,267.5696,92.5117,2.6898e-05,2.28e-06,0.0,0 STARLINK-5320,1 55289U 23010W   24038.67012276  .00000228  00000-0  26898-4 0  9992,2 55289  70.0008 143.3470 0003020 267.5696  92.5117 14.98328865 59276,6950.196,96.107,574.16,569.962,0.0
55289.0,STARLINK-5320,PAYLOAD,2024-02-08 14:30:51,14.98333847,0.000279,70.0011,140.9913,260.5257,99.5586,8.8337e-06,1.2e-07,0.0,0 STARLINK-5320,1 55289U 23010W   24039.60475919  .00000012  00000-0  88337-5 0  9991,2 55289  70.0011 140.9913 0002790 260.5257  99.5586 14.98333847 59413,6950.181,96.107,573.985,570.107,0.0
55289.0,STARLINK-5320,PAYLOAD,2024-02-08 16:06:59,14.98334818,0.0002798,70.0012,140.8231,262.1775,97.9066,1.8504e-05,1.28e-06,0.0,0 STARLINK-5320,1 55289U 23010W   24039.67151818  .00000128  00000-0  18504-4 0  9993,2 55289  70.0012 140.8231 0002798 262.1775  97.9066 14.98334818 59118,6950.178,96.107,573.988,570.098,0.0
55289.0,STARLINK-5320,PAYLOAD,2024-02-09 11:20:36,14.98325448,0.0002865,70.002,138.8037,261.1645,98.9189,1.4823e-05,8.4e-07,0.0,0 STARLINK-5320,1 55289U 23010W   24040.47264378  .00000084  00000-0  14823-4 0  9990,2 55289  70.0020 138.8037 0002865 261.1645  98.9189 14.98325448 59237,6950.207,96.107,574.063,570.081,0.0
55289.0,STARLINK-5320,PAYLOAD,2024-02-09 14:32:52,14.98325998,0.0002557,70.0019,138.4673,250.5121,109.5762,5.8132e-06,-2.4e-07,0.0,0 STARLINK-5320,1 55289U 23010W   24040.60616384 -.00000024  00000-0  58132-5 0  9990,2 55289  70.0019 138.4673 0002557 250.5121 109.5762 14.98325998 59568,6950.205,96.107,573.847,570.293,0.0
55289.0,STARLINK-5320,PAYLOAD,2024-02-10 11:22:37,14.98328059,0.0002575,70.0015,136.2777,256.6338,103.4534,-3.632e-05,-5.26e-06,0.0,0 STARLINK-5320,1 55289U 23010W   24041.47404423 -.00000526  00000-0 -36320-4 0  9997,2 55289  70.0015 136.2777 0002575 256.6338 103.4534 14.98328059 59383,6950.199,96.107,573.854,570.274,0.0
55289.0,STARLINK-5320,PAYLOAD,2024-02-10 12:58:45,14.98327392,0.0002586,70.0015,136.1095,256.9472,103.1399,-4.3206e-05,-6.08e-06,0.0,0 STARLINK-5320,1 55289U 23010W   24041.54080498 -.00000608  00000-0 -43206-4 0  9999,2 55289  70.0015 136.1095 0002586 256.9472 103.1399 14.98327392 59700,6950.201,96.107,573.863,570.269,0.0
